{
  "type": "FeatureCollection",
  "features": [
    {
      "type": "Feature",
      "properties": {
        "norad_id": 41599,
        "name": "CARTOSAT-2C",
        "group": "resource",
        "lat": 4.140927182529134,
        "lon": 54.45348860525705,
        "alt_km": 503.93888216493906,
        "timestamp": "2025-12-23T20:42:36.729852+00:00",
        "meta_object_name": "CARTOSAT-2C",
        "meta_object_id": "2016-040A",
        "meta_epoch": "2025-12-23T08:02:44.483712",
        "meta_mean_motion": 15.1920545,
        "meta_eccentricity": 0.00108614,
        "meta_inclination": 97.475,
        "meta_ra_of_asc_node": 54.476,
        "meta_arg_of_pericenter": 30.4166,
        "meta_mean_anomaly": 329.7697,
        "meta_ephemeris_type": 0,
        "meta_classification_type": "U",
        "meta_norad_cat_id": 41599,
        "meta_element_set_no": 999,
        "meta_rev_at_epoch": 52701,
        "meta_bstar": 0.0001687368,
        "meta_mean_motion_dot": 3.487e-05,
        "meta_mean_motion_ddot": 0,
        "tle_line1": "1 41599U 16040A   25357.33523708  .00003487  00000+0  16874-3 0  9992",
        "tle_line2": "2 41599  97.4750  54.4760 0010861  30.4166 329.7697 15.19205450527014"
      },
      "geometry": {
        "type": "Point",
        "coordinates": [
          54.45348860525705,
          4.140927182529134
        ]
      }
    },
    {
      "type": "Feature",
      "properties": {
        "norad_id": 41601,
        "name": "SKYSAT-C1",
        "group": "resource",
        "lat": -57.42218103348036,
        "lon": -156.80512030495987,
        "alt_km": 474.70826615370515,
        "timestamp": "2025-12-23T20:42:36.729862+00:00",
        "meta_object_name": "SKYSAT-C1",
        "meta_object_id": "2016-040C",
        "meta_epoch": "2025-12-23T02:26:23.297856",
        "meta_mean_motion": 15.32767948,
        "meta_eccentricity": 0.00011597,
        "meta_inclination": 96.9802,
        "meta_ra_of_asc_node": 33.531,
        "meta_arg_of_pericenter": 334.4821,
        "meta_mean_anomaly": 25.6365,
        "meta_ephemeris_type": 0,
        "meta_classification_type": "U",
        "meta_norad_cat_id": 41601,
        "meta_element_set_no": 999,
        "meta_rev_at_epoch": 53086,
        "meta_bstar": 0.00031966452,
        "meta_mean_motion_dot": 0.00010047,
        "meta_mean_motion_ddot": 0,
        "tle_line1": "1 41601U 16040C   25357.10165854  .00010047  00000+0  31966-3 0  9994",
        "tle_line2": "2 41601  96.9802  33.5310 0001159 334.4821  25.6365 15.32767948530865"
      },
      "geometry": {
        "type": "Point",
        "coordinates": [
          -156.80512030495987,
          -57.42218103348036
        ]
      }
    },
    {
      "type": "Feature",
      "properties": {
        "norad_id": 41603,
        "name": "LAPAN-A3",
        "group": "resource",
        "lat": -21.604818962697937,
        "lon": -2.138506482932714,
        "alt_km": 472.5134953500765,
        "timestamp": "2025-12-23T20:42:36.729873+00:00",
        "meta_object_name": "LAPAN-A3",
        "meta_object_id": "2016-040E",
        "meta_epoch": "2025-12-23T06:41:35.831616",
        "meta_mean_motion": 15.3163325,
        "meta_eccentricity": 0.00087309,
        "meta_inclination": 97.143,
        "meta_ra_of_asc_node": 354.4518,
        "meta_arg_of_pericenter": 290.378,
        "meta_mean_anomaly": 69.6524,
        "meta_ephemeris_type": 0,
        "meta_classification_type": "U",
        "meta_norad_cat_id": 41603,
        "meta_element_set_no": 999,
        "meta_rev_at_epoch": 52787,
        "meta_bstar": 0.00014790914,
        "meta_mean_motion_dot": 4.448e-05,
        "meta_mean_motion_ddot": 0,
        "tle_line1": "1 41603U 16040E   25357.27888694  .00004448  00000+0  14791-3 0  9993",
        "tle_line2": "2 41603  97.1430 354.4518 0008730 290.3780  69.6524 15.31633250527877"
      },
      "geometry": {
        "type": "Point",
        "coordinates": [
          -2.138506482932714,
          -21.604818962697937
        ]
      }
    },
    {
      "type": "Feature",
      "properties": {
        "norad_id": 41604,
        "name": "BIROS",
        "group": "resource",
        "lat": 49.84310927124298,
        "lon": 21.32154912913989,
        "alt_km": 285.8692531900142,
        "timestamp": "2025-12-23T20:42:36.729883+00:00",
        "meta_object_name": "BIROS",
        "meta_object_id": "2016-040F",
        "meta_epoch": "2025-12-23T00:54:41.222304",
        "meta_mean_motion": 15.93712142,
        "meta_eccentricity": 0.00037921,
        "meta_inclination": 97.067,
        "meta_ra_of_asc_node": 28.9133,
        "meta_arg_of_pericenter": 129.7524,
        "meta_mean_anomaly": 230.4087,
        "meta_ephemeris_type": 0,
        "meta_classification_type": "U",
        "meta_norad_cat_id": 41604,
        "meta_element_set_no": 999,
        "meta_rev_at_epoch": 53036,
        "meta_bstar": 0.00061249698,
        "meta_mean_motion_dot": 0.00219845,
        "meta_mean_motion_ddot": 2.0271061e-05,
        "tle_line1": "1 41604U 16040F   25357.03797711  .00219845  20271-4  61250-3 0  9995",
        "tle_line2": "2 41604  97.0670  28.9133 0003792 129.7524 230.4087 15.93712142530369"
      },
      "geometry": {
        "type": "Point",
        "coordinates": [
          21.32154912913989,
          49.84310927124298
        ]
      }
    },
    {
      "type": "Feature",
      "properties": {
        "norad_id": 41727,
        "name": "GAOFEN-3",
        "group": "resource",
        "lat": 36.694815421425666,
        "lon": -170.39632026629477,
        "alt_km": 748.5529513979482,
        "timestamp": "2025-12-23T20:42:36.729894+00:00",
        "meta_object_name": "GAOFEN-3",
        "meta_object_id": "2016-049A",
        "meta_epoch": "2025-12-23T06:43:48.160992",
        "meta_mean_motion": 14.42216572,
        "meta_eccentricity": 0.00011698,
        "meta_inclination": 98.4031,
        "meta_ra_of_asc_node": 2.7056,
        "meta_arg_of_pericenter": 55.4291,
        "meta_mean_anomaly": 304.7009,
        "meta_ephemeris_type": 0,
        "meta_classification_type": "U",
        "meta_norad_cat_id": 41727,
        "meta_element_set_no": 999,
        "meta_rev_at_epoch": 49329,
        "meta_bstar": 8.348763e-05,
        "meta_mean_motion_dot": 2.32e-06,
        "meta_mean_motion_ddot": 0,
        "tle_line1": "1 41727U 16049A   25357.28041853  .00000232  00000+0  83488-4 0  9995",
        "tle_line2": "2 41727  98.4031   2.7056 0001169  55.4291 304.7009 14.42216572493295"
      },
      "geometry": {
        "type": "Point",
        "coordinates": [
          -170.39632026629477,
          36.694815421425666
        ]
      }
    },
    {
      "type": "Feature",
      "properties": {
        "norad_id": 41771,
        "name": "SKYSAT-C4",
        "group": "resource",
        "lat": -21.672326158493433,
        "lon": -160.26217834214046,
        "alt_km": 443.70584192750175,
        "timestamp": "2025-12-23T20:42:36.729904+00:00",
        "meta_object_name": "SKYSAT-C4",
        "meta_object_id": "2016-058B",
        "meta_epoch": "2025-12-23T01:09:20.907360",
        "meta_mean_motion": 15.42530983,
        "meta_eccentricity": 0.00023872,
        "meta_inclination": 96.9361,
        "meta_ra_of_asc_node": 21.7353,
        "meta_arg_of_pericenter": 125.8934,
        "meta_mean_anomaly": 234.2537,
        "meta_ephemeris_type": 0,
        "meta_classification_type": "U",
        "meta_norad_cat_id": 41771,
        "meta_element_set_no": 999,
        "meta_rev_at_epoch": 51826,
        "meta_bstar": 0.0003620547,
        "meta_mean_motion_dot": 0.00015641,
        "meta_mean_motion_ddot": 0,
        "tle_line1": "1 41771U 16058B   25357.04815865  .00015641  00000+0  36205-3 0  9994",
        "tle_line2": "2 41771  96.9361  21.7353 0002387 125.8934 234.2537 15.42530983518267"
      },
      "geometry": {
        "type": "Point",
        "coordinates": [
          -160.26217834214046,
          -21.672326158493433
        ]
      }
    },
    {
      "type": "Feature",
      "properties": {
        "norad_id": 41772,
        "name": "SKYSAT-C5",
        "group": "resource",
        "lat": 35.90953211014613,
        "lon": -133.69140517864508,
        "alt_km": 461.55083693326833,
        "timestamp": "2025-12-23T20:42:36.729914+00:00",
        "meta_object_name": "SKYSAT-C5",
        "meta_object_id": "2016-058C",
        "meta_epoch": "2025-12-22T20:36:11.255904",
        "meta_mean_motion": 15.3404884,
        "meta_eccentricity": 0.0003865,
        "meta_inclination": 97.0737,
        "meta_ra_of_asc_node": 40.1871,
        "meta_arg_of_pericenter": 242.4795,
        "meta_mean_anomaly": 117.6056,
        "meta_ephemeris_type": 0,
        "meta_classification_type": "U",
        "meta_norad_cat_id": 41772,
        "meta_element_set_no": 999,
        "meta_rev_at_epoch": 51671,
        "meta_bstar": 0.00031468,
        "meta_mean_motion_dot": 0.00010298,
        "meta_mean_motion_ddot": 0,
        "tle_line1": "1 41772U 16058C   25356.85846361  .00010298  00000+0  31468-3 0  9997",
        "tle_line2": "2 41772  97.0737  40.1871 0003865 242.4795 117.6056 15.34048840516715"
      },
      "geometry": {
        "type": "Point",
        "coordinates": [
          -133.69140517864508,
          35.90953211014613
        ]
      }
    }
  ]
}